NORAD_CAT_ID,OBJECT_NAME,OBJECT_TYPE,EPOCH,MEAN_MOTION,ECCENTRICITY,INCLINATION,RA_OF_ASC_NODE,ARG_OF_PERICENTER,MEAN_ANOMALY,BSTAR,MEAN_MOTION_DOT,MEAN_MOTION_DDOT,TLE_LINE0,TLE_LINE1,TLE_LINE2,SEMIMAJOR_AXIS,PERIOD,APOGEE,PERIGEE,DECAYED
53572.0,STARLINK-4555,PAYLOAD,2022-11-08 22:00:00,15.26789661,0.0001312,53.2133,116.6466,77.3846,171.5403,-0.045194,-0.01101689,0.0,0 STARLINK-4555,1 53572U 22101AX  22312.91667824 -.01101689  00000-0 -45194-1 0  9993,2 53572  53.2133 116.6466 0001312  77.3846 171.5403 15.26789661 12749,6863.554,94.316,486.319,484.518,0.0
53572.0,STARLINK-4555,PAYLOAD,2022-11-09 14:00:01,15.25195585,0.0001271,53.2139,113.5723,85.3101,228.0003,-0.050686,-0.01186426,0.0,0 STARLINK-4555,1 53572U 22101AX  22313.58334491 -.01186426  00000-0 -50686-1 0  9992,2 53572  53.2139 113.5723 0001271  85.3101 228.0003 15.25195585 12844,6868.335,94.414,491.073,489.327,0.0
53572.0,STARLINK-4555,PAYLOAD,2022-11-10 00:00:00,15.24188628,0.0001273,53.214,111.6564,67.7479,13.8141,-0.052665,-0.01195174,0.0,0 STARLINK-4555,1 53572U 22101AX  22314.00001157 -.01195174  00000-0 -52665-1 0  9999,2 53572  53.2140 111.6564 0001273  67.7479  13.8141 15.24188628  1303,6871.36,94.476,494.1,492.35,0.0
53572.0,STARLINK-4555,PAYLOAD,2022-11-10 06:00:00,15.23512335,0.0001129,53.2144,110.5066,89.0466,284.762,-0.048738,-0.0107815,0.0,0 STARLINK-4555,1 53572U 22101AX  22314.25001157 -.01078150  00000-0 -48738-1 0  9996,2 53572  53.2144 110.5066 0001129  89.0466 284.7620 15.23512335 12954,6873.393,94.518,496.034,494.482,0.0
53572.0,STARLINK-4555,PAYLOAD,2022-11-10 14:00:01,15.22687588,0.0001215,53.2168,108.9755,89.818,312.7404,-0.049606,-0.01071303,0.0,0 STARLINK-4555,1 53572U 22101AX  22314.58334491 -.01071303  00000-0 -49606-1 0  9990,2 53572  53.2168 108.9755 0001215  89.8180 312.7404 15.22687588  1304,6875.875,94.57,498.575,496.905,0.0
53572.0,STARLINK-4555,PAYLOAD,2022-11-10 16:00:00,15.22522375,0.0001385999999999,53.217,108.594,85.0293,54.5488,-0.052357,-0.01135346,0.0,0 STARLINK-4555,1 53572U 22101AX  22314.66667824 -.01135346  00000-0 -52357-1 0  9993,2 53572  53.2170 108.5940 0001386  85.0293  54.5488 15.22522375 13017,6876.371999999999,94.58,499.19,497.284,0.0
53572.0,STARLINK-4555,PAYLOAD,2022-11-10 22:00:00,15.21871192,0.0001252999999999,53.2167,107.4493,82.8268,347.5259,-0.050503,-0.01065109,0.0,0 STARLINK-4555,1 53572U 22101AX  22314.91667824 -.01065109  00000-0 -50503-1 0  9991,2 53572  53.2167 107.4493 0001253  82.8268 347.5259 15.21871192  1307,6878.334,94.62,501.061,499.337,0.0
53572.0,STARLINK-4555,PAYLOAD,2022-11-11 06:00:00,15.2110672,0.0001226,53.2174,105.9212,85.8257,11.3216,-0.05521,-0.01147073,0.0,0 STARLINK-4555,1 53572U 22101AX  22315.25001157 -.01147073  00000-0 -55210-1 0  9991,2 53572  53.2174 105.9212 0001226  85.8257  11.3216 15.21106720 13106,6880.638000000001,94.668,503.347,501.66,0.0
53572.0,STARLINK-4555,PAYLOAD,2022-11-11 14:00:01,15.20304613,0.0001404,53.2155,104.4001,84.6972,38.3223,-0.058017,-0.01174961,0.0,0 STARLINK-4555,1 53572U 22101AX  22315.58334491 -.01174961  00000-0 -58017-1 0  9991,2 53572  53.2155 104.4001 0001404  84.6972  38.3223 15.20304613  1300,6883.058000000001,94.718,505.889,503.957,0.0
53572.0,STARLINK-4555,PAYLOAD,2022-11-11 22:00:00,15.19410712,0.0001394,53.2165,102.8774,82.0294,65.8552,-0.053126,-0.01044076,0.0,0 STARLINK-4555,1 53572U 22101AX  22315.91667824 -.01044076  00000-0 -53126-1 0  9996,2 53572  53.2165 102.8774 0001394  82.0294  65.8552 15.19410712 13205,6885.757,94.774,508.582,506.663,0.0
53572.0,STARLINK-4555,PAYLOAD,2022-11-12 14:00:01,15.17781043,0.0001431999999999,53.2172,99.8376,91.8559,102.8223,-0.055698,-0.01043977,0.0,0 STARLINK-4555,1 53572U 22101AX  22316.58334491 -.01043977  00000-0 -55698-1 0  9996,2 53572  53.2172  99.8376 0001432  91.8559 102.8223 15.17781043 13305,6890.685,94.875,513.5369999999998,511.564,0.0
53572.0,STARLINK-4555,PAYLOAD,2022-11-13 00:00:00,15.1687217,0.0001157,53.2162,97.945,80.1911,231.7268,-0.066411,-0.01213757,0.0,0 STARLINK-4555,1 53572U 22101AX  22317.00001157 -.01213757  00000-0 -66411-1 0  9994,2 53572  53.2162  97.9450 0001157  80.1911 231.7268 15.16872170  1302,6893.438,94.932,516.1,514.505,0.0
53572.0,STARLINK-4555,PAYLOAD,2022-11-13 06:00:02,15.16191338,0.0001372,53.2165,96.808,89.0592,148.5661,-0.060339,-0.01091134,0.0,0 STARLINK-4555,1 53572U 22101AX  22317.25002315 -.01091134  00000-0 -60339-1 0  9994,2 53572  53.2165  96.8080 0001372  89.0592 148.5661 15.16191338 13400,6895.501,94.975,518.312,516.42,0.0
53572.0,STARLINK-4555,PAYLOAD,2022-11-13 14:00:01,15.15430175,0.0001438,53.2169,95.2956,90.0297,167.4913,-0.068126,-0.0119625,0.0,0 STARLINK-4555,1 53572U 22101AX  22317.58334491 -.01196250  00000-0 -68126-1 0  9990,2 53572  53.2169  95.2956 0001438  90.0297 167.4913 15.15430175 13455,6897.81,95.023,520.6669999999998,518.683,0.0
53572.0,STARLINK-4555,PAYLOAD,2022-11-13 22:00:00,15.14542857,0.0001318,53.2167,93.7851,85.1427,191.3815,-0.0634179999999999,-0.01093892,0.0,0 STARLINK-4555,1 53572U 22101AX  22317.91667824 -.01093892  00000-0 -63418-1 0  9993,2 53572  53.2167  93.7851 0001318  85.1427 191.3815 15.14542857  1305,6900.504,95.078,523.278,521.4590000000002,0.0
53572.0,STARLINK-4555,PAYLOAD,2022-11-14 14:00:01,15.12968552,0.0001276,53.2174,90.7682,93.4132,218.1259,-0.06965,-0.01144799,0.0,0 STARLINK-4555,1 53572U 22101AX  22318.58334491 -.01144799  00000-0 -69650-1 0  9995,2 53572  53.2174  90.7682 0001276  93.4132 218.1259 15.12968552 13619,6905.29,95.177,528.036,526.274,0.0
53572.0,STARLINK-4555,PAYLOAD,2022-11-14 22:00:00,15.12157622,0.0001205,53.2171,89.2634,90.116,237.483,-0.071575,-0.01149519,0.0,0 STARLINK-4555,1 53572U 22101AX  22318.91667824 -.01149519  00000-0 -71575-1 0  9995,2 53572  53.2171  89.2634 0001205  90.1160 237.4830 15.12157622  1303,6907.7580000000025,95.228,530.456,528.7909999999998,0.0
53572.0,STARLINK-4555,PAYLOAD,2022-11-15 14:00:01,15.10528565,0.0001145,53.217,86.2615,78.7422,278.0845,-0.07553,-0.01158338,0.0,0 STARLINK-4555,1 53572U 22101AX  22319.58334491 -.01158338  00000-0 -75530-1 0  9994,2 53572  53.2170  86.2615 0001145  78.7422 278.0845 15.10528565 13760,6912.724,95.331,535.38,533.797,0.0
53572.0,STARLINK-4555,PAYLOAD,2022-11-15 22:00:00,15.09485439,8.94e-05,53.216,84.7623,70.3802,299.5973,-0.015312,-0.00240164,0.0,0 STARLINK-4555,1 53572U 22101AX  22319.91667824 -.00240164  00000-0 -15312-1 0  9990,2 53572  53.2160  84.7623 0000894  70.3802 299.5973 15.09485439 13817,6915.908,95.397,538.3919999999998,537.155,0.0
53572.0,STARLINK-4555,PAYLOAD,2022-11-16 04:00:00,15.09665248,8.109999999999999e-05,53.2179,83.6359,94.0597,195.0723,-0.06115,-0.00920653,0.0,0 STARLINK-4555,1 53572U 22101AX  22320.16667824 -.00920653  00000-0 -61150-1 0  9998,2 53572  53.2179  83.6359 0000811  94.0597 195.0723 15.09665248 13848,6915.359,95.385,537.785,536.663,0.0
53572.0,STARLINK-4555,PAYLOAD,2022-11-16 14:00:01,15.07793237,0.0001217,53.2185,81.7634,115.4061,279.0494,0.090893,0.01525179,0.0,0 STARLINK-4555,1 53572U 22101AX  22320.58335648  .01525179  00000-0  90893-1 0  9999,2 53572  53.2185  81.7634 0001217 115.4061 279.0494 15.07793237  1309,6921.081999999999,95.504,543.789,542.104,0.0
53572.0,STARLINK-4555,PAYLOAD,2022-11-16 20:00:01,15.08838598,0.0001249,53.2173,80.6438,84.6541,227.7748,-0.00010263,-1.921e-05,0.0,0 STARLINK-4555,1 53572U 22101AX  22320.83334491 -.00001921  00000-0 -10263-3 0  9992,2 53572  53.2173  80.6438 0001249  84.6541 227.7748 15.08838598 13958,6917.885,95.438,540.614,538.886,0.0
53572.0,STARLINK-4555,PAYLOAD,2022-11-16 22:00:08,15.08837951,0.0001339,53.2172,80.2688,86.6226,319.1458,-0.00013068,-2.367e-05,0.0,0 STARLINK-4555,1 53572U 22101AX  22320.91675926 -.00002367  00000-0 -13068-3 0  9993,2 53572  53.2172  80.2688 0001339  86.6226 319.1458 15.08837951  1304,6917.887,95.438,540.678,538.825,0.0
53572.0,STARLINK-4555,PAYLOAD,2022-11-17 06:00:00,15.088150199999998,9.93e-05,53.2163,78.7742,80.4655,336.4161,0.0033476,0.00053356,0.0,0 STARLINK-4555,1 53572U 22101AX  22321.25001157  .00053356  00000-0  33476-2 0  9996,2 53572  53.2163  78.7742 0000993  80.4655 336.4161 15.08815020 14018,6917.956999999999,95.439,540.509,539.135,0.0
53572.0,STARLINK-4555,PAYLOAD,2022-11-17 14:00:01,15.08827995,0.0001095999999999,53.2169,77.2782,79.6945,348.7809,0.0030781,0.00049025,0.0,0 STARLINK-4555,1 53572U 22101AX  22321.58334491  .00049025  00000-0  30781-2 0  9996,2 53572  53.2169  77.2782 0001096  79.6945 348.7809 15.08827995  1306,6917.917,95.438,540.54,539.024,0.0
53572.0,STARLINK-4555,PAYLOAD,2022-11-17 22:00:00,15.08835949,0.0001014,53.216,75.7828,72.01,8.0559,-0.00073332,-0.00011938,0.0,0 STARLINK-4555,1 53572U 22101AX  22321.91667824 -.00011938  00000-0 -73332-3 0  9996,2 53572  53.2160  75.7828 0001014  72.0100   8.0559 15.08835949  1307,6917.893,95.438,540.4590000000002,539.056,0.0
53572.0,STARLINK-4555,PAYLOAD,2022-11-18 14:00:01,15.08855887,0.0001062,53.216,72.7903,75.7788,27.4583,-0.0028302,-0.00045068,0.0,0 STARLINK-4555,1 53572U 22101AX  22322.58334491 -.00045068  00000-0 -28302-2 0  9998,2 53572  53.2160  72.7903 0001062  75.7788  27.4583 15.08855887  1308,6917.831999999999,95.437,540.432,538.962,0.0
53572.0,STARLINK-4555,PAYLOAD,2022-11-18 22:00:00,15.08844196,9.96e-05,53.2159,71.2935,73.7268,41.1036,-0.00088226,-0.00014303,0.0,0 STARLINK-4555,1 53572U 22101AX  22322.91667824 -.00014303  00000-0 -88226-3 0  9994,2 53572  53.2159  71.2935 0000996  73.7268  41.1036 15.08844196 14267,6917.868,95.437,540.422,539.044,0.0
53572.0,STARLINK-4555,PAYLOAD,2022-11-19 14:00:01,15.08868798,0.0001113,53.2162,68.301,76.7422,61.2824,-0.003987,-0.00063233,0.0,0 STARLINK-4555,1 53572U 22101AX  22323.58334491 -.00063233  00000-0 -39870-2 0  9995,2 53572  53.2162  68.3010 0001113  76.7422  61.2824 15.08868798 14362,6917.792,95.436,540.427,538.887,0.0
